[{"OBJECT_NAME":"EGYPTSAT-A (MISRSAT-A)","OBJECT_ID":"2019-008A","EPOCH":"2026-03-09T23:42:01.937952","MEAN_MOTION":14.72293505,"ECCENTRICITY":0.00010879,"INCLINATION":98.0143,"RA_OF_ASC_NODE":135.2007,"ARG_OF_PERICENTER":85.2157,"MEAN_ANOMALY":274.9175,"EPHEMERIS_TYPE":0,"CLASSIFICATION_TYPE":"U","NORAD_CAT_ID":44047,"ELEMENT_SET_NO":999,"REV_AT_EPOCH":37864,"BSTAR":9.9362666e-5,"MEAN_MOTION_DOT":5.78e-6,"MEAN_MOTION_DDOT":0},{"OBJECT_NAME":"CZ-4B DEB","OBJECT_ID":"1999-057MM","EPOCH":"2026-03-08T22:26:35.664000","MEAN_MOTION":14.60942565,"ECCENTRICITY":0.00758855,"INCLINATION":98.3991,"RA_OF_ASC_NODE":124.2319,"ARG_OF_PERICENTER":333.5518,"MEAN_ANOMALY":26.1817,"EPHEMERIS_TYPE":0,"CLASSIFICATION_TYPE":"U","NORAD_CAT_ID":27492,"ELEMENT_SET_NO":999,"REV_AT_EPOCH":30878,"BSTAR":0.0011203076,"MEAN_MOTION_DOT":5.666e-5,"MEAN_MOTION_DDOT":0}]
